OBJECT_NAME,OBJECT_ID,EPOCH,MEAN_MOTION,ECCENTRICITY,INCLINATION,RA_OF_ASC_NODE,ARG_OF_PERICENTER,MEAN_ANOMALY,EPHEMERIS_TYPE,CLASSIFICATION_TYPE,NORAD_CAT_ID,ELEMENT_SET_NO,REV_AT_EPOCH,BSTAR,MEAN_MOTION_DOT,MEAN_MOTION_DDOT
SKYSAT-C1,2016-040C,2026-06-10T15:18:07.346592,15.36189201,.00040115,96.9572,193.7128,70.5409,289.6270,0,U,41601,999,55686,.23237761E-3,.8122E-4,0
LAPAN-A3,2016-040E,2026-06-10T14:22:20.894880,15.33062590,.00115962,97.1485,157.9611,47.2953,312.9264,0,U,41603,999,55380,.97797841E-4,.3054E-4,0
GAOFEN-3,2016-049A,2026-06-10T15:09:49.133952,14.42214267,.00012558,98.4015,169.5168,99.0307,261.1025,0,U,41727,999,51770,-.6650212E-5,-.65E-6,0
SKYSAT-C4,2016-058B,2026-06-10T14:40:30.723744,15.48380585,.00009167,96.9181,183.6596,111.1144,249.0206,0,U,41771,999,54445,.28103583E-3,.14804E-3,0
SKYSAT-C5,2016-058C,2026-06-10T13:58:54.484320,15.34375257,.0001737,97.0478,202.5178,356.4536,3.6695,0,U,41772,999,54273,.21291158E-3,.7013E-4,0
SKYSAT-C2,2016-058D,2026-06-10T13:48:29.483136,15.41919486,.00050455,97.0175,183.9197,84.7189,275.4635,0,U,41773,999,54403,.25058006E-3,.10578E-3,0
SKYSAT-C3,2016-058E,2026-06-10T13:38:41.557056,15.52254399,.00018118,96.9012,192.6714,85.3177,274.8284,0,U,41774,999,54508,.32877642E-3,.19891E-3,0
ALSAT-1B,2016-059C,2026-06-10T13:54:51.397056,14.72268654,.00077704,97.7755,170.6286,245.1472,114.8929,0,U,41785,999,51960,.10332641E-4,.18E-6,0
PATHFINDER 1,2016-059E,2026-06-10T14:11:48.754464,14.67655620,.00273428,97.8166,161.1654,225.2504,134.6476,0,U,41787,999,51874,.95427856E-4,.499E-5,0
SCATSAT 1,2016-059H,2026-06-10T10:48:18.189792,14.79511348,.00532512,98.1192,225.1467,269.7745,89.7364,0,U,41790,999,10059,.12446815E-3,.895E-5,0
GOKTURK 1A,2016-073A,2026-06-10T14:39:10.752768,14.62769480,.00014568,98.1257,56.3875,78.4962,281.6403,0,U,41875,999,50786,.48485419E-4,.201E-5,0
RESOURCESAT-2A,2016-074A,2026-06-10T14:17:43.043712,14.21615971,.00033565,98.7524,235.1539,95.6726,264.4834,0,U,41877,999,49336,.23262314E-3,.466E-5,0
CARTOSAT-2D,2017-008A,2026-06-10T15:18:50.501664,15.19288751,.0003644,97.4111,221.0666,259.5935,100.4889,0,U,41948,999,51658,.3286065E-3,.6868E-4,0
SENTINEL-2B,2017-013A,2026-06-10T15:13:02.633664,14.30815620,.00012014,98.5688,236.5010,85.3111,274.8209,0,U,42063,999,48370,.91264399E-4,.196E-5,0
CARTOSAT-2E,2017-036C,2026-06-10T14:09:21.623904,15.19272646,.00028705,97.4278,221.5013,350.4086,9.7093,0,U,42767,999,49714,.24621588E-3,.5125E-4,0
FORMOSAT-5,2017-049A,2026-06-10T13:41:17.700000,14.50896393,.00126985,98.2253,237.0269,102.5468,257.7148,0,U,42920,999,46571,.41976211E-4,.122E-5,0
SENTINEL-5P,2017-064A,2026-06-10T13:49:43.221216,14.19517853,.00009988,98.7924,103.7545,83.3152,276.8137,0,U,42969,999,44862,.37318775E-4,.34E-6,0
SKYSAT-C11,2017-068A,2026-06-10T07:29:35.971296,15.57537859,.00009713,97.4342,309.8471,85.2551,274.8815,0,U,42987,999,48217,.36998454E-3,.27182E-3,0
SKYSAT-C10,2017-068B,2026-06-10T15:23:29.570208,15.34526332,.00011957,97.4490,298.4261,92.1195,268.0185,0,U,42988,999,48135,.24666723E-3,.817E-4,0
SKYSAT-C9,2017-068C,2026-06-10T14:49:25.049856,15.41397704,.00091195,97.4412,299.2743,153.9135,206.2573,0,U,42989,999,48174,.27801204E-3,.11548E-3,0
SKYSAT-C8,2017-068D,2026-06-10T14:56:30.835104,15.36846140,.00015373,97.4508,298.1818,97.4134,262.7285,0,U,42990,999,48130,.25413933E-3,.9071E-4,0
SKYSAT-C7,2017-068E,2026-06-10T14:47:00.632256,15.36794161,.00070824,97.4519,299.1642,125.6495,234.5409,0,U,42991,999,48136,.25502681E-3,.9094E-4,0
SKYSAT-C6,2017-068F,2026-06-10T14:59:00.206880,15.34096282,.00040908,97.4556,299.1664,154.8968,205.2474,0,U,42992,999,48131,.25022896E-3,.8178E-4,0
CARTOSAT-2F,2018-004A,2026-06-10T14:55:24.112704,15.19168749,.00003858,97.4795,221.3206,309.6447,50.4754,0,U,43111,999,46633,.31429668E-3,.6542E-4,0
GAOFEN-1 02,2018-031A,2026-06-10T14:08:25.634112,14.76472110,.00042344,98.0528,224.1347,48.1357,312.0213,0,U,43259,999,44172,.81440315E-4,.515E-5,0
GAOFEN-1 03,2018-031B,2026-06-10T15:14:37.139712,14.76459608,.00038263,98.0525,224.0394,92.0841,268.0807,0,U,43260,999,44172,.93155009E-4,.597E-5,0
GAOFEN-1 04,2018-031D,2026-06-10T14:39:38.295360,14.76472072,.00022659,98.0529,224.2052,89.0836,271.0634,0,U,43262,999,44171,.18312027E-3,.1223E-4,0
SENTINEL-3B,2018-039A,2026-06-10T14:20:23.108352,14.26739879,.00008232,98.6249,229.2242,80.1829,279.9444,0,U,43437,999,42318,.51180986E-4,.8E-6,0
GAOFEN-5 01,2018-043A,2026-06-10T11:38:43.524672,14.60600817,.00030354,98.4566,132.9309,95.4854,264.6692,0,U,43461,999,43071,.68714553E-4,.285E-5,0
GAOFEN-6,2018-048A,2026-06-09T01:47:54.508416,14.76624229,.0011378,97.7757,223.0567,194.8499,165.2379,0,U,43484,999,43219,.12207314E-3,.804E-5,0
