0 SKYSAT C1
1 41601U 16040C   26161.63758503  .00008122  00000-0  23238-3 0  9990
2 41601  96.9572 193.7128 0004011  70.5409 289.6270 15.36189201556864
0 LAPAN A3
1 41603U 16040E   26161.59885295  .00003054  00000-0  97798-4 0  9998
2 41603  97.1485 157.9611 0011596  47.2953 312.9264 15.33062590553804
0 GAOFEN 3
1 41727U 16049A   26161.63181868 -.00000065  00000-0 -66502-5 0  9995
2 41727  98.4015 169.5168 0001256  99.0307 261.1025 14.42214267517708
0 SKYSAT C4
1 41771U 16058B   26161.61146671  .00014804  00000-0  28104-3 0  9993
2 41771  96.9181 183.6596 0000917 111.1144 249.0206 15.48380585544456
0 SKYSAT C5
1 41772U 16058C   26161.58257505  .00007013  00000-0  21291-3 0  9993
2 41772  97.0478 202.5178 0001737 356.4536   3.6695 15.34375257542735
0 SKYSAT C2
1 41773U 16058D   26161.57534124  .00010578  00000-0  25058-3 0  9993
2 41773  97.0175 183.9197 0005045  84.7189 275.4635 15.41919486544038
0 SKYSAT C3
1 41774U 16058E   26161.56853654  .00019891  00000-0  32878-3 0  9990
2 41774  96.9012 192.6714 0001812  85.3177 274.8284 15.52254399545087
0 ALSAT 1B
1 41785U 16059C   26161.57976154  .00000018  00000-0  10333-4 0  9999
2 41785  97.7755 170.6286 0007770 245.1472 114.8929 14.72268654519603
0 PATHFINDER 1
1 41787U 16059E   26161.59153651  .00000499  00000-0  95428-4 0  9993
2 41787  97.8166 161.1654 0027343 225.2504 134.6476 14.67655620518747
0 SCATSAT 1
1 41790U 16059H   26161.45021053  .00000895  00000-0  12447-3 0  9991
2 41790  98.1192 225.1467 0053251 269.7745  89.7364 14.79511348100591
0 GOKTURK-1A
1 41875U 16073A   26161.61054112  .00000201  00000-0  48485-4 0  9994
2 41875  98.1257  56.3875 0001457  78.4962 281.6403 14.62769480507863
0 RESOURCESAT 2A
1 41877U 16074A   26161.59563708  .00000466  00000-0  23262-3 0  9998
2 41877  98.7524 235.1539 0003357  95.6726 264.4834 14.21615971493368
0 CARTOSAT 2D
1 41948U 17008A   26161.63808451  .00006868  00000-0  32861-3 0  9994
2 41948  97.4111 221.0666 0003644 259.5935 100.4889 15.19288751516581
0 SENTINEL 2B
1 42063U 17013A   26161.63405826  .00000196  00000-0  91264-4 0  9999
2 42063  98.5688 236.5010 0001201  85.3111 274.8209 14.30815620483705
0 CARTOSAT 2E
1 42767U 17036C   26161.58983361  .00005125  00000-0  24622-3 0  9994
2 42767  97.4278 221.5013 0002870 350.4086   9.7093 15.19272646497148
0 FORMOSAT-5
1 42920U 17049A   26161.57034375  .00000122  00000-0  41976-4 0  9994
2 42920  98.2253 237.0269 0012699 102.5468 257.7148 14.50896393465715
0 SENTINEL 5P
1 42969U 17064A   26161.57619469  .00000034  00000-0  37319-4 0  9995
2 42969  98.7924 103.7545 0000999  83.3152 276.8137 14.19517853448627
0 SKYSAT C11
1 42987U 17068A   26161.31222189  .00027182  00000-0  36998-3 0  9994
2 42987  97.4342 309.8471 0000971  85.2551 274.8815 15.57537859482178
0 SKYSAT C10
1 42988U 17068B   26161.64131447  .00008170  00000-0  24667-3 0  9993
2 42988  97.4490 298.4261 0001196  92.1195 268.0185 15.34526332481357
0 SKYSAT C9
1 42989U 17068C   26161.61765104  .00011548  00000-0  27801-3 0  9990
2 42989  97.4412 299.2743 0009119 153.9135 206.2573 15.41397704481744
0 SKYSAT C8
1 42990U 17068D   26161.62257911  .00009071  00000-0  25414-3 0  9991
2 42990  97.4508 298.1818 0001537  97.4134 262.7285 15.36846140481306
0 SKYSAT C7
1 42991U 17068E   26161.61597954  .00009094  00000-0  25503-3 0  9999
2 42991  97.4519 299.1642 0007082 125.6495 234.5409 15.36794161481366
0 SKYSAT C6
1 42992U 17068F   26161.62430795  .00008178  00000-0  25023-3 0  9999
2 42992  97.4556 299.1664 0004091 154.8968 205.2474 15.34096282481317
0 CARTOSAT 2F
1 43111U 18004A   26161.62180686  .00006542  00000-0  31430-3 0  9997
2 43111  97.4795 221.3206 0000386 309.6447  50.4754 15.19168749466337
0 GAOFEN 1-02
1 43259U 18031A   26161.58918558  .00000515  00000-0  81440-4 0  9993
2 43259  98.0528 224.1347 0004234  48.1357 312.0213 14.76472110441724
0 GAOFEN 1-03
1 43260U 18031B   26161.63515208  .00000597  00000-0  93155-4 0  9992
2 43260  98.0525 224.0394 0003826  92.0841 268.0807 14.76459608441722
0 GAOFEN 1-04
1 43262U 18031D   26161.61085990  .00001223  00000-0  18312-3 0  9990
2 43262  98.0529 224.2052 0002266  89.0836 271.0634 14.76472072441719
0 SENTINEL 3B
1 43437U 18039A   26161.59748968  .00000080  00000-0  51181-4 0  9992
2 43437  98.6249 229.2242 0000823  80.1829 279.9444 14.26739879423188
0 GAOFEN-5
1 43461U 18043A   26161.48522598  .00000285  00000-0  68715-4 0  9999
2 43461  98.4566 132.9309 0003035  95.4854 264.6692 14.60600817430714
0 GAOFEN 6
1 43484U 18048A   26160.07493644  .00000804  00000-0  12207-3 0  9993
2 43484  97.7757 223.0567 0011378 194.8499 165.2379 14.76624229432191
